ONEWEB-0158             
1 48054U 21025N   26198.29465129  .00000109  00000+0  26246-3 0  9997
2 48054  87.8985 314.2281 0001856 108.6985 251.4346 13.13472455257583
ONEWEB-0157             
1 48055U 21025P   26197.86296624  .00000198  00000+0  50632-3 0  9996
2 48055  87.8984 314.3187 0002313  96.1595 263.9798 13.13470796257468
ONEWEB-0162             
1 48056U 21025Q   26198.29620728  .00000162  00000+0  40737-3 0  9997
2 48056  87.8982 314.2329 0001879  95.3049 264.8294 13.13470167257491
ONEWEB-0155             
1 48057U 21025R   26198.30311142  .00000287  00000+0  75010-3 0  9997
2 48057  87.8983 314.2281 0002022  97.3503 262.7856 13.13474197257632
ONEWEB-0149             
1 48058U 21025S   26197.86805328  .00000172  00000+0  43672-3 0  9994
2 48058  87.8987 314.3185 0001851  93.2553 266.8788 13.13469344257389
ONEWEB-0148             
1 48059U 21025T   26198.28787258 -.00000077  00000+0 -24572-3 0  9997
2 48059  87.8979 314.2403 0001895  82.4995 277.6350 13.13469975257566
ONEWEB-0160             
1 48060U 21025U   26198.30479908  .00000310  00000+0  81510-3 0  9995
2 48060  87.8978 314.2330 0001465 118.8697 241.2579 13.13469956257516
ONEWEB-0163             
1 48061U 21025V   26198.28956564 -.00000041  00000+0 -14823-3 0  9997
2 48061  87.8986 314.2328 0002228  97.1816 262.9567 13.13470114257631
ONEWEB-0159             
1 48062U 21025W   26198.28109807 -.00000232  00000+0 -67151-3 0  9992
2 48062  87.8987 314.2284 0002209  98.2156 261.9224 13.13470390257558
ONEWEB-0164             
1 48063U 21025X   26198.26247589 -.00000097  00000+0 -29994-3 0  9993
2 48063  87.8990 314.2382 0001919 102.0313 258.1031 13.13469552257538
ONEWEB-0167             
1 48064U 21025Y   26198.29041808 -.00000001  00000+0 -37644-4 0  9990
2 48064  87.8978 314.2400 0002581 106.7054 253.4358 13.13470767257524
ONEWEB-0166             
1 48065U 21025Z   26198.31326994  .00000396  00000+0  10505-2 0  9996
2 48065  87.8988 314.2099 0001954  98.2505 261.8846 13.13470089257600
ONEWEB-0151             
1 48066U 21025AA  26197.85788846  .00000306  00000+0  80221-3 0  9997
2 48066  87.8987 314.3150 0002059 103.2945 256.8414 13.13469694257482
ONEWEB-0170             
1 48067U 21025AB  26197.86635149  .00000171  00000+0  43315-3 0  9999
2 48067  87.8985 314.3155 0001865 115.9161 244.2161 13.13468386257443
ONEWEB-0168             
1 48068U 21025AC  26198.30818723  .00000368  00000+0  97285-3 0  9994
2 48068  87.8987 314.2288 0002013 100.4869 259.6487 13.13469741257517
ONEWEB-0173             
1 48069U 21025AD  26198.29972340  .00000238  00000+0  61794-3 0  9991
2 48069  87.8980 314.2305 0002336  99.3976 260.7417 13.13470365257750
ONEWEB-0171             
1 48070U 21025AE  26198.26078240 -.00000072  00000+0 -23244-3 0  9992
2 48070  87.8980 314.2452 0002009 103.0614 257.0739 13.13469538257569
ONEWEB-0172             
1 48071U 21025AF  26198.31664555  .00000343  00000+0  90429-3 0  9997
2 48071  87.8992 314.2266 0002106 101.0597 259.0769 13.13470674258460
ONEWEB-0174             
1 48072U 21025AG  26198.29803369  .00000193  00000+0  49250-3 0  9992
2 48072  87.8986 314.2289 0001975  95.3789 264.7565 13.13470126257783
ONEWEB-0175             
1 48073U 21025AH  26198.25232108  .00000150  00000+0  37601-3 0  9996
2 48073  87.8989 314.2236 0002108 108.7996 251.3362 13.13469363257437
ONEWEB-0177             
1 48074U 21025AJ  26198.34034587 -.00000128  00000+0 -38664-3 0  9995
2 48074  87.8986 314.2233 0002104  95.1505 264.9864 13.13469933257635
ONEWEB-0178             
1 48075U 21025AK  26198.28292878 -.00000183  00000+0 -53712-3 0  9990
2 48075  87.8976 314.2446 0002208 103.2078 256.9297 13.13471033257671
ONEWEB-0108             
1 48076U 21025AL  26198.31834517  .00000340  00000+0  89517-3 0  9992
2 48076  87.8989 314.2205 0001720  97.6923 262.4401 13.13469454257608
ONEWEB-0169             
1 48077U 21025AM  26198.27432649 -.00000235  00000+0 -67715-3 0  9999
2 48077  87.8985 314.2349 0001965  96.3255 263.8098 13.13469886256255
ONEWEB-0176             
1 48210U 21031A   26197.78881107 -.00000076  00000+0 -23950-3 0  9993
2 48210  87.8969 283.8015 0002148 101.0601 259.0770 13.14502474252207
ONEWEB-0184             
1 48211U 21031B   26198.21856294  .00000178  00000+0  44585-3 0  9990
2 48211  87.8970 283.7188 0002671 112.4647 247.6766 13.14502614252234
ONEWEB-0179             
1 48212U 21031C   26198.20859752  .00000198  00000+0  57521-4 0  9999
2 48212  87.8989 279.7482 0221905 158.8935 202.1597 14.25549694253325
ONEWEB-0180             
1 48213U 21031D   26198.22173576  .00000264  00000+0  67651-3 0  9993
2 48213  87.8978 283.7146 0002467  98.2527 261.8882 13.14503392252162
ONEWEB-0218             
1 48214U 21031E   26197.78722221  .00000000  00000+0 -34807-4 0  9998
2 48214  87.8981 283.8002 0002846 108.0855 252.0585 13.14503092252264
ONEWEB-0209             
1 48215U 21031F   26198.23283712  .00000254  00000+0  65001-3 0  9996
2 48215  87.8969 283.7259 0002235  95.7120 264.4265 13.14503742252324
