OBJECT_NAME,OBJECT_ID,EPOCH,MEAN_MOTION,ECCENTRICITY,INCLINATION,RA_OF_ASC_NODE,ARG_OF_PERICENTER,MEAN_ANOMALY,EPHEMERIS_TYPE,CLASSIFICATION_TYPE,NORAD_CAT_ID,ELEMENT_SET_NO,REV_AT_EPOCH,BSTAR,MEAN_MOTION_DOT,MEAN_MOTION_DDOT
ONEWEB-0158,2021-025N,2026-07-17T07:04:17.871456,13.13472455,.00018563,87.8985,314.2281,108.6985,251.4346,0,U,48054,999,25758,.26245565E-3,.109E-5,0
ONEWEB-0157,2021-025P,2026-07-16T20:42:40.283136,13.13470796,.00023138,87.8984,314.3187,96.1595,263.9798,0,U,48055,999,25746,.50631733E-3,.198E-5,0
ONEWEB-0162,2021-025Q,2026-07-17T07:06:32.308992,13.13470167,.00018794,87.8982,314.2329,95.3049,264.8294,0,U,48056,999,25749,.40736996E-3,.162E-5,0
ONEWEB-0155,2021-025R,2026-07-17T07:16:28.826688,13.13474197,.00020226,87.8983,314.2281,97.3503,262.7856,0,U,48057,999,25763,.75009712E-3,.287E-5,0
ONEWEB-0149,2021-025S,2026-07-16T20:49:59.803392,13.13469344,.00018513,87.8987,314.3185,93.2553,266.8788,0,U,48058,999,25738,.43672226E-3,.172E-5,0
ONEWEB-0148,2021-025T,2026-07-17T06:54:32.190912,13.13469975,.00018955,87.8979,314.2403,82.4995,277.6350,0,U,48059,999,25756,-.2457227E-3,-.77E-6,0
ONEWEB-0160,2021-025U,2026-07-17T07:18:54.640512,13.13469956,.00014654,87.8978,314.2330,118.8697,241.2579,0,U,48060,999,25751,.81510262E-3,.31E-5,0
ONEWEB-0163,2021-025V,2026-07-17T06:56:58.471296,13.13470114,.00022283,87.8986,314.2328,97.1816,262.9567,0,U,48061,999,25763,-.14822681E-3,-.41E-6,0
ONEWEB-0159,2021-025W,2026-07-17T06:44:46.873248,13.13470390,.00022098,87.8987,314.2284,98.2156,261.9224,0,U,48062,999,25755,-.67150907E-3,-.232E-5,0
ONEWEB-0164,2021-025X,2026-07-17T06:17:57.916896,13.13469552,.00019192,87.8990,314.2382,102.0313,258.1031,0,U,48063,999,25753,-.29993578E-3,-.97E-6,0
ONEWEB-0167,2021-025Y,2026-07-17T06:58:12.122112,13.13470767,.00025817,87.8978,314.2400,106.7054,253.4358,0,U,48064,999,25752,-.3764404E-4,-.1E-7,0
ONEWEB-0166,2021-025Z,2026-07-17T07:31:06.522816,13.13470089,.00019543,87.8988,314.2099,98.2505,261.8846,0,U,48065,999,25760,.10505032E-2,.396E-5,0
ONEWEB-0151,2021-025AA,2026-07-16T20:35:21.562944,13.13469694,.00020597,87.8987,314.3150,103.2945,256.8414,0,U,48066,999,25748,.80220971E-3,.306E-5,0
ONEWEB-0170,2021-025AB,2026-07-16T20:47:32.768736,13.13468386,.00018655,87.8985,314.3155,115.9161,244.2161,0,U,48067,999,25744,.43314703E-3,.171E-5,0
ONEWEB-0168,2021-025AC,2026-07-17T07:23:47.376672,13.13469741,.00020134,87.8987,314.2288,100.4869,259.6487,0,U,48068,999,25751,.97284502E-3,.368E-5,0
ONEWEB-0173,2021-025AD,2026-07-17T07:11:36.101760,13.13470365,.00023367,87.8980,314.2305,99.3976,260.7417,0,U,48069,999,25775,.61794059E-3,.238E-5,0
ONEWEB-0171,2021-025AE,2026-07-17T06:15:31.599360,13.13469538,.00020093,87.8980,314.2452,103.0614,257.0739,0,U,48070,999,25756,-.23243646E-3,-.72E-6,0
ONEWEB-0172,2021-025AF,2026-07-17T07:35:58.175520,13.13470674,.00021064,87.8992,314.2266,101.0597,259.0769,0,U,48071,999,25846,.90428791E-3,.343E-5,0
ONEWEB-0174,2021-025AG,2026-07-17T07:09:10.110816,13.13470126,.00019753,87.8986,314.2289,95.3789,264.7565,0,U,48072,999,25778,.49249643E-3,.193E-5,0
ONEWEB-0175,2021-025AH,2026-07-17T06:03:20.541312,13.13469363,.0002108,87.8989,314.2236,108.7996,251.3362,0,U,48073,999,25743,.37600967E-3,.15E-5,0
ONEWEB-0177,2021-025AJ,2026-07-17T08:10:05.883168,13.13469933,.00021042,87.8986,314.2233,95.1505,264.9864,0,U,48074,999,25763,-.38663759E-3,-.128E-5,0
ONEWEB-0178,2021-025AK,2026-07-17T06:47:25.046592,13.13471033,.00022085,87.8976,314.2446,103.2078,256.9297,0,U,48075,999,25767,-.53711655E-3,-.183E-5,0
ONEWEB-0108,2021-025AL,2026-07-17T07:38:25.022688,13.13469454,.00017204,87.8989,314.2205,97.6923,262.4401,0,U,48076,999,25760,.89516581E-3,.34E-5,0
ONEWEB-0169,2021-025AM,2026-07-17T06:35:01.808736,13.13469886,.00019655,87.8985,314.2349,96.3255,263.8098,0,U,48077,999,25625,-.6771453E-3,-.235E-5,0
ONEWEB-0176,2021-031A,2026-07-16T18:55:53.276448,13.14502474,.00021485,87.8969,283.8015,101.0601,259.0770,0,U,48210,999,25220,-.2395006E-3,-.76E-6,0
ONEWEB-0184,2021-031B,2026-07-17T05:14:43.838016,13.14502614,.00026714,87.8970,283.7188,112.4647,247.6766,0,U,48211,999,25223,.44584697E-3,.178E-5,0
ONEWEB-0179,2021-031C,2026-07-17T05:00:22.825728,14.25549694,.02219054,87.8989,279.7482,158.8935,202.1597,0,U,48212,999,25332,.57521404E-4,.198E-5,0
ONEWEB-0180,2021-031D,2026-07-17T05:19:17.969664,13.14503392,.00024673,87.8978,283.7146,98.2527,261.8882,0,U,48213,999,25216,.67651364E-3,.264E-5,0
ONEWEB-0218,2021-031E,2026-07-16T18:53:35.998944,13.14503092,.00028467,87.8981,283.8002,108.0855,252.0585,0,U,48214,999,25226,-.34807174E-4,0,0
ONEWEB-0209,2021-031F,2026-07-17T05:35:17.127168,13.14503742,.00022352,87.8969,283.7259,95.7120,264.4265,0,U,48215,999,25232,.65001277E-3,.254E-5,0
